Company,Name,Title,Email,Phone,City,State,Country,Notes
Wiegand and Sons,Terrell Davio,Senior Editor,tdavio0@google.com.br,(862) 5860449,Newark,New Jersey,United States,Pellentesque eget nunc. Donec quis orci eget orci vehicula condimentum.
Wiegand and Sons,Jelene Clemon,Data Coordiator,jclemon1@tinyurl.com,(123) 1470869,Ferme-Neuve,Québec,Canada,Nullam porttitor lacus at turpis.
Wiegand and Sons,Pepita Corzon,General Manager,pcorzon2@printfriendly.com,(415) 8130387,San Francisco,California,United States,"Fusce posuere felis sed lacus. Morbi sem mauris, laoreet ut, rhoncus aliquet, pulvinar sed, nisl."
Wiegand and Sons,Rozanne Sherred,Paralegal,rsherred3@census.gov,(515) 6149557,Des Moines,Iowa,United States,Sed accumsan felis.
Wiegand and Sons,Tonie Clampe,Director of Sales,tclampe4@meetup.com,(177) 3682718,Varennes,Québec,Canada,"Morbi vestibulum, velit id pretium iaculis, diam erat fermentum justo, nec condimentum neque sapien placerat ante."
Wiegand and Sons,Sheri Winchcomb,Electrical Engineer,swinchcomb5@sbwire.com,(388) 7506381,Spirit River,Alberta,Canada,Nunc rhoncus dui vel sem.
Wiegand and Sons,Lorelle MacNulty,Administrative Officer,lmacnulty6@wunderground.com,(317) 8080278,Indianapolis,Indiana,United States,"Curabitur in libero ut massa volutpat convallis. Morbi odio odio, elementum eu, interdum eu, tincidunt in, leo."
Hoeger-Grimes,Gian Liddicoat,Geological Engineer,gliddicoat7@ihg.com,,Tucson,Arizona,United States,Duis at velit eu est congue elementum.
Hoeger-Grimes,Lynna Adie,Mechanical Systems Engineer,ladie8@hexun.com,(951) 4349795,Lac-Brome,Québec,Canada,Nunc nisl.
Hoeger-Grimes,Zared Beadnell,Research Nurse,zbeadnell9@stumbleupon.com,(159) 8207529,Peterborough,Ontario,Canada,"Donec ut mauris eget massa tempor convallis. Nulla neque libero, convallis eget, eleifend luctus, ultricies eu, nibh."
Hoeger-Grimes,Chlo Medgwick,Financial Analyst,cmedgwicka@patch.com,(314) 9980668,Saint Louis,Missouri,United States,
Hoeger-Grimes,Karim Abbets,Project Manager,kabbetsb@buzzfeed.com,(917) 6552367,New York City,New York,United States,Phasellus sit amet erat.
Hoeger-Grimes,Cele Salters,Recruiting Manager,csaltersc@people.com.cn,,Birmingham,Alabama,United States,Vivamus in felis eu sapien cursus vestibulum. Proin eu mi.
Hoeger-Grimes,Chucho Perrelle,Human Resources Manager,cperrelled@foxnews.com,(860) 5989003,Hartford,Connecticut,United States,"Cum sociis natoque penatibus et magnis dis parturient montes, nascetur ridiculus mus. Vivamus vestibulum sagittis sapien."
Hoeger-Grimes,Martyn Timbridge,Administrative Assistant I,mtimbridgee@delicious.com,(341) 8326137,Pierreville,Québec,Canada,In hac habitasse platea dictumst.
Hoeger-Grimes,Keane Cason,Account Representative I,kcasonf@forbes.com,(786) 8819755,Miami,Florida,United States,Phasellus in felis.
Hoeger-Grimes,Cindy Schelle,Research Associate,cschelleg@icio.us,(704) 5021912,Charlotte,North Carolina,United States,Donec dapibus. Duis at velit eu est congue elementum.
Hoeger-Grimes,Roze Huckin,Web Designer III,rhuckinh@dyndns.org,(869) 7914335,Carleton-sur-Mer,Québec,Canada,Mauris lacinia sapien quis libero. Nullam sit amet turpis elementum ligula vehicula consequat.
Hoeger-Grimes,Hadrian Kless,Research Assistant II,hklessi@wikimedia.org,,Nelson,British Columbia,Canada,Curabitur gravida nisi at nibh. In hac habitasse platea dictumst.
Bailey LLC,Gale Mettrick,Research Associate,gmettrickj@noaa.gov,(937) 2548491,Dayton,Ohio,United States,"Aliquam sit amet diam in magna bibendum imperdiet. Nullam orci pede, venenatis non, sodales sed, tincidunt eu, felis."
Bailey LLC,Sheree Cornbell,Recruiting Manager,scornbellk@printfriendly.com,,Miami,Florida,United States,"Aliquam augue quam, sollicitudin vitae, consectetuer eget, rutrum at, lorem."
Bailey LLC,Meredeth Stabbins,Programmer Analyst I,mstabbinsl@printfriendly.com,(671) 1593660,Château-Richer,Québec,Canada,"Phasellus id sapien in sapien iaculis congue. Vivamus metus arcu, adipiscing molestie, hendrerit at, vulputate vitae, nisl."
Bailey LLC,Nevsa Desvignes,Software Engineer IV,ndesvignesm@blogger.com,,Tampa,Florida,United States,In hac habitasse platea dictumst.
Bailey LLC,Johann Maffione,Product Engineer,jmaffionen@clickbank.net,(903) 8961413,Tyler,Texas,United States,"Quisque erat eros, viverra eget, congue eget, semper rutrum, nulla. Nunc purus."
Bailey LLC,Olympie Barsby,VP Product Management,obarsbyo@wikispaces.com,(697) 4640407,Niverville,Manitoba,Canada,Duis bibendum. Morbi non quam nec dui luctus rutrum.
Bailey LLC,Marlena Chatres,Quality Control Specialist,mchatresp@globo.com,(909) 8619453,Petawawa,Ontario,Canada,Cras pellentesque volutpat dui.
Bailey LLC,Willette Arne,Safety Technician I,warneq@domainmarket.com,(633) 9720940,Saint-Tite,Québec,Canada,"Nulla neque libero, convallis eget, eleifend luctus, ultricies eu, nibh."
Bailey LLC,Lara Jaszczak,Compensation Analyst,ljaszczakr@google.com,(713) 7892502,Houston,Texas,United States,Vestibulum rutrum rutrum neque.
Bailey LLC,Barrett Hughlin,Software Test Engineer IV,bhughlins@blinklist.com,,Tucson,Arizona,United States,Pellentesque at nulla.
Bailey LLC,Susann Kier,Senior Sales Associate,skiert@gmpg.org,,Saint Louis,Missouri,United States,"Donec vitae nisi. Nam ultrices, libero non mattis pulvinar, nulla pede ullamcorper augue, a suscipit nulla elit ac nulla."
Bailey LLC,Martha Bromhead,Chief Design Engineer,mbromheadu@theglobeandmail.com,(658) 6889884,Meadow Lake,Saskatchewan,Canada,
Bailey LLC,Nikaniki Arthur,Data Coordiator,narthurv@icio.us,(495) 4222919,Pemberton,British Columbia,Canada,"Cras in purus eu magna vulputate luctus. Cum sociis natoque penatibus et magnis dis parturient montes, nascetur ridiculus mus."
Bailey LLC,Genia Sketchley,Assistant Manager,gsketchleyw@ca.gov,,Anchorage,Alaska,United States,"Proin leo odio, porttitor id, consequat in, consequat ut, nulla. Sed accumsan felis."
"Price, Abshire and Ferry",Constantine Reen,Social Worker,creenx@ca.gov,(991) 3022209,Lumsden,Saskatchewan,Canada,Suspendisse accumsan tortor quis turpis. Sed ante.
"Price, Abshire and Ferry",Polly Chaney,Chief Design Engineer,pchaneyy@rambler.ru,(616) 6525004,Grand Rapids,Michigan,United States,Aenean sit amet justo. Morbi ut odio.
"Price, Abshire and Ferry",Cindy Sinnett,Operator,csinnettz@last.fm,,Detroit,Michigan,United States,Donec semper sapien a libero. Nam dui.
"Price, Abshire and Ferry",Agata Yanez,Safety Technician IV,ayanez10@histats.com,(512) 4611215,Austin,Texas,United States,In hac habitasse platea dictumst.
"Price, Abshire and Ferry",Bendite Causer,Nurse,bcauser11@feedburner.com,(404) 9701996,Atlanta,Georgia,United States,Donec quis orci eget orci vehicula condimentum.
"Price, Abshire and Ferry",Neile Coath,Web Designer III,ncoath12@wikispaces.com,,Peterborough,Ontario,Canada,In quis justo.
Mitchell Inc,Cullin Treleven,Financial Analyst,ctreleven13@alibaba.com,,Houston,Texas,United States,Morbi porttitor lorem id ligula. Suspendisse ornare consequat lectus.
Mitchell Inc,Chrissy Facchini,Physical Therapy Assistant,cfacchini14@friendfeed.com,,Hyattsville,Maryland,United States,Nullam molestie nibh in lectus.
Mitchell Inc,Erich Carncross,Programmer Analyst I,ecarncross15@skyrock.com,(407) 7396571,Kissimmee,Florida,United States,"In hac habitasse platea dictumst. Aliquam augue quam, sollicitudin vitae, consectetuer eget, rutrum at, lorem."
